[
  {
    "CCSDS_OMM_VERS": "3.0",
    "COMMENT": "GENERATED VIA SPACE-TRACK.ORG API",
    "CREATION_DATE": "2026-02-19T17:59:09",
    "ORIGINATOR": "18 SPCS",
    "OBJECT_NAME": "COSMOS 574",
    "OBJECT_ID": "1973-042A",
    "CENTER_NAME": "EARTH",
    "REF_FRAME": "TEME",
    "TIME_SYSTEM": "UTC",
    "MEAN_ELEMENT_THEORY": "SGP4",
    "EPOCH": "2026-02-19T15:33:45.795744",
    "MEAN_MOTION": "13.72410154",
    "ECCENTRICITY": "0.00205276",
    "INCLINATION": "82.9472",
    "RA_OF_ASC_NODE": "280.3287",
    "ARG_OF_PERICENTER": "211.6013",
    "MEAN_ANOMALY": "157.3926",
    "EPHEMERIS_TYPE": "0",
    "CLASSIFICATION_TYPE": "U",
    "NORAD_CAT_ID": "6707",
    "ELEMENT_SET_NO": "999",
    "REV_AT_EPOCH": "7455",
    "BSTAR": "0.00007042044200",
    "MEAN_MOTION_DOT": "0.00000079",
    "MEAN_MOTION_DDOT": "0.0000000000000",
    "SEMIMAJOR_AXIS": "7369.068",
    "PERIOD": "104.925",
    "APOAPSIS": "1006.060",
    "PERIAPSIS": "975.806",
    "OBJECT_TYPE": "PAYLOAD",
    "RCS_SIZE": "LARGE",
    "COUNTRY_CODE": "CIS",
    "LAUNCH_DATE": "1973-06-20",
    "SITE": "PKMTR",
    "DECAY_DATE": null,
    "FILE": "5039972",
    "GP_ID": "313156730",
    "TLE_LINE0": "0 COSMOS 574",
    "TLE_LINE1": "1 06707U 73042A   26050.64844671  .00000079  00000-0  70420-4 0  9992",
    "TLE_LINE2": "2 06707  82.9472 280.3287 0020528 211.6013 157.3926 13.72410154 74557"
  },
  {
    "CCSDS_OMM_VERS": "3.0",
    "COMMENT": "GENERATED VIA SPACE-TRACK.ORG API",
    "CREATION_DATE": "2026-02-19T17:59:09",
    "ORIGINATOR": "18 SPCS",
    "OBJECT_NAME": "COSMOS 1796",
    "OBJECT_ID": "1986-092C",
    "CENTER_NAME": "EARTH",
    "REF_FRAME": "TEME",
    "TIME_SYSTEM": "UTC",
    "MEAN_ELEMENT_THEORY": "SGP4",
    "EPOCH": "2026-02-19T15:33:31.741056",
    "MEAN_MOTION": "12.49641565",
    "ECCENTRICITY": "0.00162583",
    "INCLINATION": "74.0135",
    "RA_OF_ASC_NODE": "125.5439",
    "ARG_OF_PERICENTER": "257.3624",
    "MEAN_ANOMALY": "271.3676",
    "EPHEMERIS_TYPE": "0",
    "CLASSIFICATION_TYPE": "U",
    "NORAD_CAT_ID": "17140",
    "ELEMENT_SET_NO": "999",
    "REV_AT_EPOCH": "79049",
    "BSTAR": "0.00018906646000",
    "MEAN_MOTION_DOT": "0.00000013",
    "MEAN_MOTION_DDOT": "0.0000000000000",
    "SEMIMAJOR_AXIS": "7844.132",
    "PERIOD": "115.233",
    "APOAPSIS": "1478.750",
    "PERIAPSIS": "1453.243",
    "OBJECT_TYPE": "PAYLOAD",
    "RCS_SIZE": "MEDIUM",
    "COUNTRY_CODE": "CIS",
    "LAUNCH_DATE": "1986-11-21",
    "SITE": "PKMTR",
    "DECAY_DATE": null,
    "FILE": "5039972",
    "GP_ID": "313159040",
    "TLE_LINE0": "0 COSMOS 1796",
    "TLE_LINE1": "1 17140U 86092C   26050.64828404  .00000013  00000-0  18907-3 0  9999",
    "TLE_LINE2": "2 17140  74.0135 125.5439 0016258 257.3624 271.3676 12.49641565790499"
  },
  {
    "CCSDS_OMM_VERS": "3.0",
    "COMMENT": "GENERATED VIA SPACE-TRACK.ORG API",
    "CREATION_DATE": "2026-02-19T17:59:09",
    "ORIGINATOR": "18 SPCS",
    "OBJECT_NAME": "YAOGAN-30 E",
    "OBJECT_ID": "2017-075B",
    "CENTER_NAME": "EARTH",
    "REF_FRAME": "TEME",
    "TIME_SYSTEM": "UTC",
    "MEAN_ELEMENT_THEORY": "SGP4",
    "EPOCH": "2026-02-19T15:33:29.795328",
    "MEAN_MOTION": "15.02042005",
    "ECCENTRICITY": "0.00041640",
    "INCLINATION": "34.9936",
    "RA_OF_ASC_NODE": "266.2922",
    "ARG_OF_PERICENTER": "283.5225",
    "MEAN_ANOMALY": "76.5019",
    "EPHEMERIS_TYPE": "0",
    "CLASSIFICATION_TYPE": "U",
    "NORAD_CAT_ID": "43029",
    "ELEMENT_SET_NO": "999",
    "REV_AT_EPOCH": "44967",
    "BSTAR": "0.00020979891000",
    "MEAN_MOTION_DOT": "0.00002780",
    "MEAN_MOTION_DDOT": "0.0000000000000",
    "SEMIMAJOR_AXIS": "6938.737",
    "PERIOD": "95.869",
    "APOAPSIS": "563.492",
    "PERIAPSIS": "557.713",
    "OBJECT_TYPE": "PAYLOAD",
    "RCS_SIZE": "LARGE",
    "COUNTRY_CODE": "PRC",
    "LAUNCH_DATE": "2017-11-24",
    "SITE": "XSC",
    "DECAY_DATE": null,
    "FILE": "5039972",
    "GP_ID": "313171130",
    "TLE_LINE0": "0 YAOGAN-30 E",
    "TLE_LINE1": "1 43029U 17075B   26050.64826152  .00002780  00000-0  20980-3 0  9994",
    "TLE_LINE2": "2 43029  34.9936 266.2922 0004164 283.5225  76.5019 15.02042005449672"
  },
  {
    "CCSDS_OMM_VERS": "3.0",
    "COMMENT": "GENERATED VIA SPACE-TRACK.ORG API",
    "CREATION_DATE": "2026-02-19T17:59:09",
    "ORIGINATOR": "18 SPCS",
    "OBJECT_NAME": "COSMOS 1325",
    "OBJECT_ID": "1981-116F",
    "CENTER_NAME": "EARTH",
    "REF_FRAME": "TEME",
    "TIME_SYSTEM": "UTC",
    "MEAN_ELEMENT_THEORY": "SGP4",
    "EPOCH": "2026-02-19T15:32:49.712640",
    "MEAN_MOTION": "12.30134970",
    "ECCENTRICITY": "0.00854228",
    "INCLINATION": "73.9824",
    "RA_OF_ASC_NODE": "129.3384",
    "ARG_OF_PERICENTER": "353.6363",
    "MEAN_ANOMALY": "160.5195",
    "EPHEMERIS_TYPE": "0",
    "CLASSIFICATION_TYPE": "U",
    "NORAD_CAT_ID": "12980",
    "ELEMENT_SET_NO": "999",
    "REV_AT_EPOCH": "98610",
    "BSTAR": "0.00027309336000",
    "MEAN_MOTION_DOT": "0.00000017",
    "MEAN_MOTION_DDOT": "0.0000000000000",
    "SEMIMAJOR_AXIS": "7926.838",
    "PERIOD": "117.060",
    "APOAPSIS": "1616.417",
    "PERIAPSIS": "1480.990",
    "OBJECT_TYPE": "PAYLOAD",
    "RCS_SIZE": "MEDIUM",
    "COUNTRY_CODE": "CIS",
    "LAUNCH_DATE": "1981-11-28",
    "SITE": "PKMTR",
    "DECAY_DATE": null,
    "FILE": "5039972",
    "GP_ID": "313158037",
    "TLE_LINE0": "0 COSMOS 1325",
    "TLE_LINE1": "1 12980U 81116F   26050.64779760  .00000017  00000-0  27309-3 0  9998",
    "TLE_LINE2": "2 12980  73.9824 129.3384 0085423 353.6363 160.5195 12.30134970986107"
  },
  {
    "CCSDS_OMM_VERS": "3.0",
    "COMMENT": "GENERATED VIA SPACE-TRACK.ORG API",
    "CREATION_DATE": "2026-02-19T17:46:31",
    "ORIGINATOR": "18 SPCS",
    "OBJECT_NAME": "YAOGAN-36 02A",
    "OBJECT_ID": "2022-133A",
    "CENTER_NAME": "EARTH",
    "REF_FRAME": "TEME",
    "TIME_SYSTEM": "UTC",
    "MEAN_ELEMENT_THEORY": "SGP4",
    "EPOCH": "2026-02-19T15:32:40.020288",
    "MEAN_MOTION": "15.23031729",
    "ECCENTRICITY": "0.00305040",
    "INCLINATION": "35.0053",
    "RA_OF_ASC_NODE": "138.9254",
    "ARG_OF_PERICENTER": "229.8635",
    "MEAN_ANOMALY": "129.9406",
    "EPHEMERIS_TYPE": "0",
    "CLASSIFICATION_TYPE": "U",
    "NORAD_CAT_ID": "54042",
    "ELEMENT_SET_NO": "999",
    "REV_AT_EPOCH": "18682",
    "BSTAR": "0.00060516000000",
    "MEAN_MOTION_DOT": "0.00014776",
    "MEAN_MOTION_DDOT": "0.0000000000000",
    "SEMIMAJOR_AXIS": "6874.839",
    "PERIOD": "94.548",
    "APOAPSIS": "517.675",
    "PERIAPSIS": "475.733",
    "OBJECT_TYPE": "PAYLOAD",
    "RCS_SIZE": "LARGE",
    "COUNTRY_CODE": "PRC",
    "LAUNCH_DATE": "2022-10-14",
    "SITE": "XSC",
    "DECAY_DATE": null,
    "FILE": "5039962",
    "GP_ID": "313155236",
    "TLE_LINE0": "0 YAOGAN-36 02A",
    "TLE_LINE1": "1 54042U 22133A   26050.64768542  .00014776  00000-0  60516-3 0  9997",
    "TLE_LINE2": "2 54042  35.0053 138.9254 0030504 229.8635 129.9406 15.23031729186821"
  },
  {
    "CCSDS_OMM_VERS": "3.0",
    "COMMENT": "GENERATED VIA SPACE-TRACK.ORG API",
    "CREATION_DATE": "2026-02-19T17:59:09",
    "ORIGINATOR": "18 SPCS",
    "OBJECT_NAME": "EXPLORER 29 (GEOS 1)",
    "OBJECT_ID": "1965-089A",
    "CENTER_NAME": "EARTH",
    "REF_FRAME": "TEME",
    "TIME_SYSTEM": "UTC",
    "MEAN_ELEMENT_THEORY": "SGP4",
    "EPOCH": "2026-02-19T15:32:25.664064",
    "MEAN_MOTION": "11.97074140",
    "ECCENTRICITY": "0.07186406",
    "INCLINATION": "59.3797",
    "RA_OF_ASC_NODE": "293.2776",
    "ARG_OF_PERICENTER": "143.8781",
    "MEAN_ANOMALY": "234.2257",
    "EPHEMERIS_TYPE": "0",
    "CLASSIFICATION_TYPE": "U",
    "NORAD_CAT_ID": "1726",
    "ELEMENT_SET_NO": "999",
    "REV_AT_EPOCH": "63559",
    "BSTAR": "0.00022236411000",
    "MEAN_MOTION_DOT": "-0.00000039",
    "MEAN_MOTION_DDOT": "0.0000000000000",
    "SEMIMAJOR_AXIS": "8072.124",
    "PERIOD": "120.293",
    "APOAPSIS": "2274.084",
    "PERIAPSIS": "1113.893",
    "OBJECT_TYPE": "PAYLOAD",
    "RCS_SIZE": "LARGE",
    "COUNTRY_CODE": "US",
    "LAUNCH_DATE": "1965-11-06",
    "SITE": "AFETR",
    "DECAY_DATE": null,
    "FILE": "5039972",
    "GP_ID": "313156244",
    "TLE_LINE0": "0 EXPLORER 29 (GEOS 1)",
    "TLE_LINE1": "1 01726U 65089A   26050.64751926 -.00000039  00000-0  22236-3 0  9998",
    "TLE_LINE2": "2 01726  59.3797 293.2776 0718641 143.8781 234.2257 11.97074140635590"
  },
  {
    "CCSDS_OMM_VERS": "3.0",
    "COMMENT": "GENERATED VIA SPACE-TRACK.ORG API",
    "CREATION_DATE": "2026-02-19T17:59:09",
    "ORIGINATOR": "18 SPCS",
    "OBJECT_NAME": "COSMOS 1479",
    "OBJECT_ID": "1983-069G",
    "CENTER_NAME": "EARTH",
    "REF_FRAME": "TEME",
    "TIME_SYSTEM": "UTC",
    "MEAN_ELEMENT_THEORY": "SGP4",
    "EPOCH": "2026-02-19T15:32:08.613888",
    "MEAN_MOTION": "12.46102709",
    "ECCENTRICITY": "0.00229255",
    "INCLINATION": "74.0238",
    "RA_OF_ASC_NODE": "278.1222",
    "ARG_OF_PERICENTER": "96.9227",
    "MEAN_ANOMALY": "269.8139",
    "EPHEMERIS_TYPE": "0",
    "CLASSIFICATION_TYPE": "U",
    "NORAD_CAT_ID": "14177",
    "ELEMENT_SET_NO": "999",
    "REV_AT_EPOCH": "93906",
    "BSTAR": "0.00010523475000",
    "MEAN_MOTION_DOT": "0.00000000",
    "MEAN_MOTION_DDOT": "0.0000000000000",
    "SEMIMAJOR_AXIS": "7858.976",
    "PERIOD": "115.560",
    "APOAPSIS": "1498.858",
    "PERIAPSIS": "1462.824",
    "OBJECT_TYPE": "PAYLOAD",
    "RCS_SIZE": "MEDIUM",
    "COUNTRY_CODE": "CIS",
    "LAUNCH_DATE": "1983-07-06",
    "SITE": "PKMTR",
    "DECAY_DATE": null,
    "FILE": "5039972",
    "GP_ID": "313159214",
    "TLE_LINE0": "0 COSMOS 1479",
    "TLE_LINE1": "1 14177U 83069G   26050.64732192  .00000000  00000-0  10523-3 0  9997",
    "TLE_LINE2": "2 14177  74.0238 278.1222 0022925  96.9227 269.8139 12.46102709939062"
  }
]